[{"OBJECT_NAME":"STARLINK-31861","OBJECT_ID":"2024-100X","EPOCH":"2026-03-09T04:42:32.806656","MEAN_MOTION":15.27559822,"ECCENTRICITY":7.599e-5,"INCLINATION":43.0017,"RA_OF_ASC_NODE":121.043,"ARG_OF_PERICENTER":272.0298,"MEAN_ANOMALY":88.0466,"EPHEMERIS_TYPE":0,"CLASSIFICATION_TYPE":"U","NORAD_CAT_ID":59906,"ELEMENT_SET_NO":999,"REV_AT_EPOCH":10115,"BSTAR":-2.2781301e-5,"MEAN_MOTION_DOT":-8.88e-6,"MEAN_MOTION_DDOT":0},{"OBJECT_NAME":"GEOSCAN 4 (RS92S4)","OBJECT_ID":"2025-155S","EPOCH":"2026-03-09T21:50:07.724832","MEAN_MOTION":15.30369837,"ECCENTRICITY":0.00070968,"INCLINATION":97.4465,"RA_OF_ASC_NODE":37.7626,"ARG_OF_PERICENTER":154.7045,"MEAN_ANOMALY":205.4544,"EPHEMERIS_TYPE":0,"CLASSIFICATION_TYPE":"U","NORAD_CAT_ID":64892,"ELEMENT_SET_NO":999,"REV_AT_EPOCH":6562,"BSTAR":0.00068609503,"MEAN_MOTION_DOT":0.00020121,"MEAN_MOTION_DDOT":0}]
